STARLINK-31193          
1 58797U 24012L   26068.34153555 -.00002875  00000+0 -94978-4 0  9992
2 58797  43.0014 167.1338 0001525 274.8459  85.2219 15.27580624121181
TEVEL2-9                
1 63237U 25052AD  26068.70229538  .00018694  00000+0  67240-3 0  9992
2 63237  97.4057 324.3929 0007990 124.2475 235.9522 15.28633834 54816
